OPS-SAT                 
1 44878U 19092F   20311.05327592  .00001600  00000-0  87206-4 0  9996
2 44878  97.4702 131.9816 0012955 221.4219 138.6032 15.15762580 48986
